start=new Date('2022-12-31T00:00:00.000Z').valueOf();
sats=[{"INCLINATION":"53.0554","TLE_LINE2":"2 48487  53.0554  31.0819 0002325  36.9206 323.1942 15.06397693 92054","COUNTRY_CODE":"US","TLE_LINE1":"1 48487U 21040BM  22364.78271938  .00001727  00000-0  13484-3 0  9990","SITE":"AFETR","TIME_SYSTEM":"UTC","MEAN_MOTION":"15.06397693","RCS_SIZE":"LARGE","EPOCH":"2022-12-30T18:47:06.954432","CLASSIFICATION_TYPE":"U","REV_AT_EPOCH":"9205","MEAN_ANOMALY":"323.1942","ELEMENT_SET_NO":"999","MEAN_ELEMENT_THEORY":"SGP4","SEMIMAJOR_AXIS":"6925.356","ECCENTRICITY":"0.00023250","OBJECT_ID":"2021-040BM","GP_ID":"221795288","FILE":"3727072","PERIAPSIS":"545.610","ARG_OF_PERICENTER":"36.9206","DECAY_DATE":null,"RA_OF_ASC_NODE":"31.0819","OBJECT_NAME":"STARLINK-2494","BSTAR":"0.00013484000000","OBJECT_TYPE":"PAYLOAD","MEAN_MOTION_DOT":"0.00001727","CENTER_NAME":"EARTH","EPHEMERIS_TYPE":"0","NORAD_CAT_ID":"48487","LAUNCH_DATE":"2021-05-09","REF_FRAME":"TEME","APOAPSIS":"548.831","PERIOD":"95.592","MEAN_MOTION_DDOT":"0.0000000000000"},{"COUNTRY_CODE":"US","TLE_LINE1":"1 48553U 21041A   22364.62697571  .00003486  00000-0  25272-3 0  9995","SITE":"AFETR","INCLINATION":"53.0556","TLE_LINE2":"2 48553  53.0556 321.7837 0002285  43.1410 316.9758 15.06411092 90054","RCS_SIZE":"LARGE","EPOCH":"2022-12-30T15:02:50.701344","CLASSIFICATION_TYPE":"U","TIME_SYSTEM":"UTC","MEAN_MOTION":"15.06411092","ELEMENT_SET_NO":"999","REV_AT_EPOCH":"9005","MEAN_ANOMALY":"316.9758","OBJECT_ID":"2021-041A","GP_ID":"221791872","MEAN_ELEMENT_THEORY":"SGP4","SEMIMAJOR_AXIS":"6925.315","ECCENTRICITY":"0.00022850","RA_OF_ASC_NODE":"321.7837","OBJECT_NAME":"STARLINK-2063","BSTAR":"0.00025272000000","FILE":"3726877","PERIAPSIS":"545.597","ARG_OF_PERICENTER":"43.1410","DECAY_DATE":null,"EPHEMERIS_TYPE":"0","OBJECT_TYPE":"PAYLOAD","MEAN_MOTION_DOT":"0.00003486","CENTER_NAME":"EARTH","LAUNCH_DATE":"2021-05-15","NORAD_CAT_ID":"48553","PERIOD":"95.591","MEAN_MOTION_DDOT":"0.0000000000000","REF_FRAME":"TEME","APOAPSIS":"548.762"},{"MEAN_ELEMENT_THEORY":"SGP4","ECCENTRICITY":"0.00016490","SEMIMAJOR_AXIS":"6925.371","GP_ID":"221786296","OBJECT_ID":"2021-041B","REV_AT_EPOCH":"8955","MEAN_ANOMALY":"297.4887","ELEMENT_SET_NO":"999","TIME_SYSTEM":"UTC","MEAN_MOTION":"15.06392581","EPOCH":"2022-12-30T07:15:47.730528","RCS_SIZE":"LARGE","CLASSIFICATION_TYPE":"U","TLE_LINE2":"2 48554  53.0550 323.2453 0001649  62.6270 297.4887 15.06392581 89553","INCLINATION":"53.0550","COUNTRY_CODE":"US","TLE_LINE1":"1 48554U 21041B   22364.30263577  .00001984  00000-0  15206-3 0  9993","SITE":"AFETR","REF_FRAME":"TEME","APOAPSIS":"548.378","PERIOD":"95.593","MEAN_MOTION_DDOT":"0.0000000000000","NORAD_CAT_ID":"48554","LAUNCH_DATE":"2021-05-15","MEAN_MOTION_DOT":"0.00001984","OBJECT_TYPE":"PAYLOAD","CENTER_NAME":"EARTH","EPHEMERIS_TYPE":"0","ARG_OF_PERICENTER":"62.6270","PERIAPSIS":"546.094","FILE":"3726810","DECAY_DATE":null,"RA_OF_ASC_NODE":"323.2453","BSTAR":"0.00015206000000","OBJECT_NAME":"STARLINK-2139"},{"MEAN_ANOMALY":"320.9877","REV_AT_EPOCH":"8987","ELEMENT_SET_NO":"999","SEMIMAJOR_AXIS":"6925.305","ECCENTRICITY":"0.00025650","MEAN_ELEMENT_THEORY":"SGP4","OBJECT_ID":"2021-041C","GP_ID":"221794264","INCLINATION":"53.0539","TLE_LINE2":"2 48555  53.0539 332.8305 0002565  39.1297 320.9877 15.06414276 89871","SITE":"AFETR","TLE_LINE1":"1 48555U 21041C   22364.39754711  .00022679  00000-0  15359-2 0  9990","COUNTRY_CODE":"US","MEAN_MOTION":"15.06414276","TIME_SYSTEM":"UTC","CLASSIFICATION_TYPE":"U","RCS_SIZE":"LARGE","EPOCH":"2022-12-30T09:32:28.070304","NORAD_CAT_ID":"48555","LAUNCH_DATE":"2021-05-15","APOAPSIS":"548.946","REF_FRAME":"TEME","MEAN_MOTION_DDOT":"0.0000000000000","PERIOD":"95.591","DECAY_DATE":null,"FILE":"3727014","PERIAPSIS":"545.393","ARG_OF_PERICENTER":"39.1297","OBJECT_NAME":"STARLINK-2145","BSTAR":"0.00153590000000","RA_OF_ASC_NODE":"332.8305","CENTER_NAME":"EARTH","OBJECT_TYPE":"PAYLOAD","MEAN_MOTION_DOT":"0.00022679","EPHEMERIS_TYPE":"0"},{"REV_AT_EPOCH":"8991","MEAN_ANOMALY":"315.7816","ELEMENT_SET_NO":"999","MEAN_ELEMENT_THEORY":"SGP4","SEMIMAJOR_AXIS":"6925.340","ECCENTRICITY":"0.00021880","OBJECT_ID":"2021-041D","GP_ID":"221794546","INCLINATION":"53.0538","TLE_LINE2":"2 48556  53.0538 331.6796 0002188  44.3347 315.7816 15.06402874 89918","COUNTRY_CODE":"US","TLE_LINE1":"1 48556U 21041D   22364.65186303  .00003086  00000-0  22595-3 0  9998","SITE":"AFETR","TIME_SYSTEM":"UTC","MEAN_MOTION":"15.06402874","RCS_SIZE":"LARGE","EPOCH":"2022-12-30T15:38:40.965792","CLASSIFICATION_TYPE":"U","NORAD_CAT_ID":"48556","LAUNCH_DATE":"2021-05-15","REF_FRAME":"TEME","APOAPSIS":"548.720","PERIOD":"95.592","MEAN_MOTION_DDOT":"0.0000000000000","FILE":"3727014","ARG_OF_PERICENTER":"44.3347","PERIAPSIS":"545.689","DECAY_DATE":null,"RA_OF_ASC_NODE":"331.6796","OBJECT_NAME":"STARLINK-2151","BSTAR":"0.00022595000000","OBJECT_TYPE":"PAYLOAD","MEAN_MOTION_DOT":"0.00003086","CENTER_NAME":"EARTH","EPHEMERIS_TYPE":"0"},{"LAUNCH_DATE":"2021-05-15","NORAD_CAT_ID":"48557","PERIOD":"95.592","MEAN_MOTION_DDOT":"0.0000000000000","REF_FRAME":"TEME","APOAPSIS":"548.949","RA_OF_ASC_NODE":"322.8390","OBJECT_NAME":"STARLINK-2155","BSTAR":"0.00037765000000","FILE":"3726810","PERIAPSIS":"545.485","ARG_OF_PERICENTER":"31.3253","DECAY_DATE":null,"EPHEMERIS_TYPE":"0","OBJECT_TYPE":"PAYLOAD","MEAN_MOTION_DOT":"0.00005348","CENTER_NAME":"EARTH","ELEMENT_SET_NO":"999","MEAN_ANOMALY":"328.7884","REV_AT_EPOCH":"8956","OBJECT_ID":"2021-041E","GP_ID":"221785546","MEAN_ELEMENT_THEORY":"SGP4","SEMIMAJOR_AXIS":"6925.352","ECCENTRICITY":"0.00025010","COUNTRY_CODE":"US","TLE_LINE1":"1 48557U 21041E   22364.39109582  .00005348  00000-0  37765-3 0  9992","SITE":"AFETR","INCLINATION":"53.0544","TLE_LINE2":"2 48557  53.0544 322.8390 0002501  31.3253 328.7884 15.06399029 89566","RCS_SIZE":"LARGE","EPOCH":"2022-12-30T09:23:10.678848","CLASSIFICATION_TYPE":"U","TIME_SYSTEM":"UTC","MEAN_MOTION":"15.06399029"},{"TLE_LINE1":"1 48558U 21041F   22364.32106597  .00004773  00000-0  33922-3 0  9991","SITE":"AFETR","COUNTRY_CODE":"US","INCLINATION":"53.0542","TLE_LINE2":"2 48558  53.0542 323.1697 0002061  48.4490 311.6676 15.06391784 88695","CLASSIFICATION_TYPE":"U","RCS_SIZE":"LARGE","EPOCH":"2022-12-30T07:42:20.099808","MEAN_MOTION":"15.06391784","TIME_SYSTEM":"UTC","ELEMENT_SET_NO":"999","REV_AT_EPOCH":"8869","MEAN_ANOMALY":"311.6676","OBJECT_ID":"2021-041F","GP_ID":"221785796","SEMIMAJOR_AXIS":"6925.374","ECCENTRICITY":"0.00020610","MEAN_ELEMENT_THEORY":"SGP4","OBJECT_NAME":"STARLINK-2166","BSTAR":"0.00033922000000","RA_OF_ASC_NODE":"323.1697","DECAY_DATE":null,"FILE":"3726810","PERIAPSIS":"545.811","ARG_OF_PERICENTER":"48.4490","EPHEMERIS_TYPE":"0","CENTER_NAME":"EARTH","OBJECT_TYPE":"PAYLOAD","MEAN_MOTION_DOT":"0.00004773","LAUNCH_DATE":"2021-05-15","NORAD_CAT_ID":"48558","MEAN_MOTION_DDOT":"0.0000000000000","PERIOD":"95.593","APOAPSIS":"548.666","REF_FRAME":"TEME"},{"RA_OF_ASC_NODE":"321.8189","OBJECT_NAME":"STARLINK-2167","BSTAR":"0.00074973000000","FILE":"3727019","ARG_OF_PERICENTER":"63.7683","PERIAPSIS":"545.950","DECAY_DATE":null,"EPHEMERIS_TYPE":"0","OBJECT_TYPE":"PAYLOAD","MEAN_MOTION_DOT":"0.00010907","CENTER_NAME":"EARTH","LAUNCH_DATE":"2021-05-15","NORAD_CAT_ID":"48559","PERIOD":"95.591","MEAN_MOTION_DDOT":"0.0000000000000","REF_FRAME":"TEME","APOAPSIS":"548.397","COUNTRY_CODE":"US","SITE":"AFETR","TLE_LINE1":"1 48559U 21041G   22364.62236023  .00010907  00000-0  74973-3 0  9990","INCLINATION":"53.0560","TLE_LINE2":"2 48559  53.0560 321.8189 0001767  63.7683 296.3488 15.06413034 90048","RCS_SIZE":"LARGE","EPOCH":"2022-12-30T14:56:11.923872","CLASSIFICATION_TYPE":"U","TIME_SYSTEM":"UTC","MEAN_MOTION":"15.06413034","ELEMENT_SET_NO":"999","REV_AT_EPOCH":"9004","MEAN_ANOMALY":"296.3488","OBJECT_ID":"2021-041G","GP_ID":"221794627","MEAN_ELEMENT_THEORY":"SGP4","SEMIMAJOR_AXIS":"6925.309","ECCENTRICITY":"0.00017670"},{"APOAPSIS":"548.215","REF_FRAME":"TEME","MEAN_MOTION_DDOT":"0.0000000000000","PERIOD":"95.591","NORAD_CAT_ID":"48561","LAUNCH_DATE":"2021-05-15","CENTER_NAME":"EARTH","MEAN_MOTION_DOT":"0.00008369","OBJECT_TYPE":"PAYLOAD","EPHEMERIS_TYPE":"0","DECAY_DATE":null,"PERIAPSIS":"546.091","ARG_OF_PERICENTER":"67.9403","FILE":"3727022","BSTAR":"0.00057978000000","OBJECT_NAME":"STARLINK-2186","RA_OF_ASC_NODE":"291.4227","ECCENTRICITY":"0.00015340","SEMIMAJOR_AXIS":"6925.288","MEAN_ELEMENT_THEORY":"SGP4","GP_ID":"221794392","OBJECT_ID":"2021-041J","REV_AT_EPOCH":"9044","MEAN_ANOMALY":"292.1748","ELEMENT_SET_NO":"999","MEAN_MOTION":"15.06419743","TIME_SYSTEM":"UTC","CLASSIFICATION_TYPE":"U","EPOCH":"2022-12-30T18:28:35.007168","RCS_SIZE":"LARGE","TLE_LINE2":"2 48561  53.0552 291.4227 0001534  67.9403 292.1748 15.06419743 90445","INCLINATION":"53.0552","TLE_LINE1":"1 48561U 21041J   22364.76984962  .00008369  00000-0  57978-3 0  9995","SITE":"AFETR","COUNTRY_CODE":"US"},{"MEAN_MOTION":"15.06391075","TIME_SYSTEM":"UTC","CLASSIFICATION_TYPE":"U","RCS_SIZE":"LARGE","EPOCH":"2022-12-30T03:59:25.157760","INCLINATION":"53.0543","TLE_LINE2":"2 48562  53.0543 323.8537 0001753  52.5385 307.5763 15.06391075 89535","SITE":"AFETR","TLE_LINE1":"1 48562U 21041K   22364.16626340  .00009202  00000-0  63599-3 0  9996","COUNTRY_CODE":"US","SEMIMAJOR_AXIS":"6925.376","ECCENTRICITY":"0.00017530","MEAN_ELEMENT_THEORY":"SGP4","OBJECT_ID":"2021-041K","GP_ID":"221786047","MEAN_ANOMALY":"307.5763","REV_AT_EPOCH":"8953","ELEMENT_SET_NO":"999","CENTER_NAME":"EARTH","OBJECT_TYPE":"PAYLOAD","MEAN_MOTION_DOT":"0.00009202","EPHEMERIS_TYPE":"0","DECAY_DATE":null,"FILE":"3726810","ARG_OF_PERICENTER":"52.5385","PERIAPSIS":"546.027","OBJECT_NAME":"STARLINK-2187","BSTAR":"0.00063599000000","RA_OF_ASC_NODE":"323.8537","APOAPSIS":"548.455","REF_FRAME":"TEME","MEAN_MOTION_DDOT":"0.0000000000000","PERIOD":"95.593","NORAD_CAT_ID":"48562","LAUNCH_DATE":"2021-05-15"}];
